{
  "type": "FeatureCollection",
  "features": [
    {
      "type": "Feature",
      "properties": {
        "norad_id": 34971,
        "name": "COSMOS 2251 DEB",
        "group": "cosmos-2251-debris",
        "lat": -16.589891508422806,
        "lon": -66.72719827629138,
        "alt_km": 761.3953926591385,
        "timestamp": "2025-12-05T19:30:25.962684+00:00",
        "meta_object_name": "COSMOS 2251 DEB",
        "meta_object_id": "1993-036AFA",
        "meta_epoch": "2025-12-04T04:04:33.254112",
        "meta_mean_motion": 14.55612791,
        "meta_eccentricity": 0.00699688,
        "meta_inclination": 73.9782,
        "meta_ra_of_asc_node": 301.3068,
        "meta_arg_of_pericenter": 169.1818,
        "meta_mean_anomaly": 207.5998,
        "meta_ephemeris_type": 0,
        "meta_classification_type": "U",
        "meta_norad_cat_id": 34971,
        "meta_element_set_no": 999,
        "meta_rev_at_epoch": 66048,
        "meta_bstar": 0.00032049169,
        "meta_mean_motion_dot": 1.415e-05,
        "meta_mean_motion_ddot": 0,
        "tle_line1": "1 34971U 93036AFA 25338.16982933  .00001415  00000+0  32049-3 0  9998",
        "tle_line2": "2 34971  73.9782 301.3068 0069968 169.1818 207.5998 14.55612791660480"
      },
      "geometry": {
        "type": "Point",
        "coordinates": [
          -66.72719827629138,
          -16.589891508422806
        ]
      }
    },
    {
      "type": "Feature",
      "properties": {
        "norad_id": 34972,
        "name": "COSMOS 2251 DEB",
        "group": "cosmos-2251-debris",
        "lat": 14.741725835013666,
        "lon": -120.94312019717844,
        "alt_km": 640.3472503989769,
        "timestamp": "2025-12-05T19:30:25.962695+00:00",
        "meta_object_name": "COSMOS 2251 DEB",
        "meta_object_id": "1993-036AFB",
        "meta_epoch": "2025-12-03T06:34:34.182336",
        "meta_mean_motion": 14.72590746,
        "meta_eccentricity": 0.0034486,
        "meta_inclination": 73.9887,
        "meta_ra_of_asc_node": 68.345,
        "meta_arg_of_pericenter": 228.4328,
        "meta_mean_anomaly": 162.7226,
        "meta_ephemeris_type": 0,
        "meta_classification_type": "U",
        "meta_norad_cat_id": 34972,
        "meta_element_set_no": 999,
        "meta_rev_at_epoch": 87511,
        "meta_bstar": 0.0021523,
        "meta_mean_motion_dot": 0.0001382,
        "meta_mean_motion_ddot": 0,
        "tle_line1": "1 34972U 93036AFB 25337.27400674  .00013820  00000+0  21523-2 0  9994",
        "tle_line2": "2 34972  73.9887  68.3450 0034486 228.4328 162.7226 14.72590746875112"
      },
      "geometry": {
        "type": "Point",
        "coordinates": [
          -120.94312019717844,
          14.741725835013666
        ]
      }
    },
    {
      "type": "Feature",
      "properties": {
        "norad_id": 34976,
        "name": "COSMOS 2251 DEB",
        "group": "cosmos-2251-debris",
        "lat": 11.635834045891356,
        "lon": 136.4251770658195,
        "alt_km": 673.4535390999108,
        "timestamp": "2025-12-05T19:30:25.962719+00:00",
        "meta_object_name": "COSMOS 2251 DEB",
        "meta_object_id": "1993-036AFF",
        "meta_epoch": "2025-12-05T07:40:29.180352",
        "meta_mean_motion": 14.76316827,
        "meta_eccentricity": 0.00478601,
        "meta_inclination": 74.0574,
        "meta_ra_of_asc_node": 320.7636,
        "meta_arg_of_pericenter": 9.0692,
        "meta_mean_anomaly": 59.3349,
        "meta_ephemeris_type": 0,
        "meta_classification_type": "U",
        "meta_norad_cat_id": 34976,
        "meta_element_set_no": 999,
        "meta_rev_at_epoch": 88164,
        "meta_bstar": 0.0025442973,
        "meta_mean_motion_dot": 0.00017999,
        "meta_mean_motion_ddot": 0,
        "tle_line1": "1 34976U 93036AFF 25339.31978218  .00017999  00000+0  25443-2 0  9995",
        "tle_line2": "2 34976  74.0574 320.7636 0047860   9.0692  59.3349 14.76316827881641"
      },
      "geometry": {
        "type": "Point",
        "coordinates": [
          136.4251770658195,
          11.635834045891356
        ]
      }
    },
    {
      "type": "Feature",
      "properties": {
        "norad_id": 34979,
        "name": "COSMOS 2251 DEB",
        "group": "cosmos-2251-debris",
        "lat": 31.827144120651216,
        "lon": 90.65721200288907,
        "alt_km": 658.5660330007195,
        "timestamp": "2025-12-05T19:30:25.962730+00:00",
        "meta_object_name": "COSMOS 2251 DEB",
        "meta_object_id": "1993-036AFJ",
        "meta_epoch": "2025-12-05T05:51:42.859584",
        "meta_mean_motion": 14.79110975,
        "meta_eccentricity": 0.00492303,
        "meta_inclination": 74.0405,
        "meta_ra_of_asc_node": 282.0061,
        "meta_arg_of_pericenter": 1.6035,
        "meta_mean_anomaly": 358.5289,
        "meta_ephemeris_type": 0,
        "meta_classification_type": "U",
        "meta_norad_cat_id": 34979,
        "meta_element_set_no": 999,
        "meta_rev_at_epoch": 88109,
        "meta_bstar": 0.0026882288,
        "meta_mean_motion_dot": 0.00020352,
        "meta_mean_motion_ddot": 0,
        "tle_line1": "1 34979U 93036AFJ 25339.24424606  .00020352  00000+0  26882-2 0  9992",
        "tle_line2": "2 34979  74.0405 282.0061 0049230   1.6035 358.5289 14.79110975881096"
      },
      "geometry": {
        "type": "Point",
        "coordinates": [
          90.65721200288907,
          31.827144120651216
        ]
      }
    },
    {
      "type": "Feature",
      "properties": {
        "norad_id": 34990,
        "name": "COSMOS 2251 DEB",
        "group": "cosmos-2251-debris",
        "lat": 74.02295636706076,
        "lon": -8.13759544058908,
        "alt_km": 749.560684528612,
        "timestamp": "2025-12-05T19:30:25.962741+00:00",
        "meta_object_name": "COSMOS 2251 DEB",
        "meta_object_id": "1993-036AFN",
        "meta_epoch": "2025-11-30T02:35:36.793536",
        "meta_mean_motion": 14.42317714,
        "meta_eccentricity": 0.00161518,
        "meta_inclination": 74.0452,
        "meta_ra_of_asc_node": 274.7497,
        "meta_arg_of_pericenter": 338.715,
        "meta_mean_anomaly": 21.3332,
        "meta_ephemeris_type": 0,
        "meta_classification_type": "U",
        "meta_norad_cat_id": 34990,
        "meta_element_set_no": 999,
        "meta_rev_at_epoch": 87164,
        "meta_bstar": 0.00051741405,
        "meta_mean_motion_dot": 1.685e-05,
        "meta_mean_motion_ddot": 0,
        "tle_line1": "1 34990U 93036AFN 25334.10806474  .00001685  00000+0  51741-3 0  9993",
        "tle_line2": "2 34990  74.0452 274.7497 0016151 338.7150  21.3332 14.42317714871644"
      },
      "geometry": {
        "type": "Point",
        "coordinates": [
          -8.13759544058908,
          74.02295636706076
        ]
      }
    },
    {
      "type": "Feature",
      "properties": {
        "norad_id": 34997,
        "name": "COSMOS 2251 DEB",
        "group": "cosmos-2251-debris",
        "lat": 4.385748701690536,
        "lon": 142.97244757174573,
        "alt_km": 782.2947262830494,
        "timestamp": "2025-12-05T19:30:25.962751+00:00",
        "meta_object_name": "COSMOS 2251 DEB",
        "meta_object_id": "1993-036AFV",
        "meta_epoch": "2025-11-29T18:09:59.976288",
        "meta_mean_motion": 14.45289096,
        "meta_eccentricity": 0.00981723,
        "meta_inclination": 73.8805,
        "meta_ra_of_asc_node": 335.6343,
        "meta_arg_of_pericenter": 312.7593,
        "meta_mean_anomaly": 46.5333,
        "meta_ephemeris_type": 0,
        "meta_classification_type": "U",
        "meta_norad_cat_id": 34997,
        "meta_element_set_no": 999,
        "meta_rev_at_epoch": 70559,
        "meta_bstar": 0.0014679127,
        "meta_mean_motion_dot": 5.442e-05,
        "meta_mean_motion_ddot": 0,
        "tle_line1": "1 34997U 93036AFV 25333.75694417  .00005442  00000+0  14679-2 0  9995",
        "tle_line2": "2 34997  73.8805 335.6343 0098172 312.7593  46.5333 14.45289096705597"
      },
      "geometry": {
        "type": "Point",
        "coordinates": [
          142.97244757174573,
          4.385748701690536
        ]
      }
    },
    {
      "type": "Feature",
      "properties": {
        "norad_id": 34998,
        "name": "COSMOS 2251 DEB",
        "group": "cosmos-2251-debris",
        "lat": -36.2484857623182,
        "lon": 160.85896018268497,
        "alt_km": 719.3274325338034,
        "timestamp": "2025-12-05T19:30:25.962761+00:00",
        "meta_object_name": "COSMOS 2251 DEB",
        "meta_object_id": "1993-036AFW",
        "meta_epoch": "2025-12-05T07:15:10.738368",
        "meta_mean_motion": 14.49232301,
        "meta_eccentricity": 0.00208266,
        "meta_inclination": 74.0093,
        "meta_ra_of_asc_node": 173.9546,
        "meta_arg_of_pericenter": 320.5716,
        "meta_mean_anomaly": 218.7492,
        "meta_ephemeris_type": 0,
        "meta_classification_type": "U",
        "meta_norad_cat_id": 34998,
        "meta_element_set_no": 999,
        "meta_rev_at_epoch": 87312,
        "meta_bstar": 0.00097084532,
        "meta_mean_motion_dot": 3.684e-05,
        "meta_mean_motion_ddot": 0,
        "tle_line1": "1 34998U 93036AFW 25339.30220762  .00003684  00000+0  97085-3 0  9990",
        "tle_line2": "2 34998  74.0093 173.9546 0020826 320.5716 218.7492 14.49232301873128"
      },
      "geometry": {
        "type": "Point",
        "coordinates": [
          160.85896018268497,
          -36.2484857623182
        ]
      }
    }
  ]
}